[
  {
    "COMMENT": "GENERATED VIA SPACETRACK.ORG API",
    "ORIGINATOR": "18 SPCS",
    "NORAD_CAT_ID": "36508",
    "OBJECT_NAME": "CRYOSAT 2",
    "OBJECT_TYPE": "PAYLOAD",
    "CLASSIFICATION_TYPE": "U",
    "INTLDES": "10013A",
    "EPOCH": "2023-08-27 22:19:19",
    "EPOCH_MICROSECONDS": "602336",
    "MEAN_MOTION": "14.51910374",
    "ECCENTRICITY": "0.0003543",
    "INCLINATION": "92.0242",
    "RA_OF_ASC_NODE": "29.6973",
    "ARG_OF_PERICENTER": "165.3861",
    "MEAN_ANOMALY": "194.7449",
    "EPHEMERIS_TYPE": "0",
    "ELEMENT_SET_NO": "999",
    "REV_AT_EPOCH": "70946",
    "BSTAR": "0.000076069",
    "MEAN_MOTION_DOT": "0.00000309",
    "MEAN_MOTION_DDOT": "0",
    "FILE": "3990698",
    "TLE_LINE0": "0 CRYOSAT 2",
    "TLE_LINE1": "1 36508U 10013A   23239.93008799  .00000309  00000-0  76069-4 0  9995",
    "TLE_LINE2": "2 36508  92.0242  29.6973 0003543 165.3861 194.7449 14.51910374709463",
    "OBJECT_ID": "2010-013A",
    "OBJECT_NUMBER": "36508",
    "SEMIMAJOR_AXIS": "7097.553",
    "PERIOD": "99.180",
    "APOGEE": "721.933",
    "PERIGEE": "716.903",
    "DECAYED": "0"
  },
  {
    "COMMENT": "GENERATED VIA SPACETRACK.ORG API",
    "ORIGINATOR": "18 SPCS",
    "NORAD_CAT_ID": "36508",
    "OBJECT_NAME": "CRYOSAT 2",
    "OBJECT_TYPE": "PAYLOAD",
    "CLASSIFICATION_TYPE": "U",
    "INTLDES": "10013A",
    "EPOCH": "2023-08-28 09:54:02",
    "EPOCH_MICROSECONDS": "220480",
    "MEAN_MOTION": "14.51910667",
    "ECCENTRICITY": "0.0003608",
    "INCLINATION": "92.0243",
    "RA_OF_ASC_NODE": "29.8139",
    "ARG_OF_PERICENTER": "164.0532",
    "MEAN_ANOMALY": "196.0789",
    "EPHEMERIS_TYPE": "0",
    "ELEMENT_SET_NO": "999",
    "REV_AT_EPOCH": "70957",
    "BSTAR": "0.000074671",
    "MEAN_MOTION_DOT": "0.00000304",
    "MEAN_MOTION_DDOT": "0",
    "FILE": "3991240",
    "TLE_LINE0": "0 CRYOSAT 2",
    "TLE_LINE1": "1 36508U 10013A   23240.41252570  .00000304  00000-0  74671-4 0  9990",
    "TLE_LINE2": "2 36508  92.0243  29.8139 0003608 164.0532 196.0789 14.51910667709572",
    "OBJECT_ID": "2010-013A",
    "OBJECT_NUMBER": "36508",
    "SEMIMAJOR_AXIS": "7097.552",
    "PERIOD": "99.180",
    "APOGEE": "721.978",
    "PERIGEE": "716.856",
    "DECAYED": "0"
  },
  {
    "COMMENT": "GENERATED VIA SPACETRACK.ORG API",
    "ORIGINATOR": "18 SPCS",
    "NORAD_CAT_ID": "36508",
    "OBJECT_NAME": "CRYOSAT 2",
    "OBJECT_TYPE": "PAYLOAD",
    "CLASSIFICATION_TYPE": "U",
    "INTLDES": "10013A",
    "EPOCH": "2023-08-28 21:28:44",
    "EPOCH_MICROSECONDS": "827392",
    "MEAN_MOTION": "14.51910926",
    "ECCENTRICITY": "0.0003678",
    "INCLINATION": "92.0244",
    "RA_OF_ASC_NODE": "29.9304",
    "ARG_OF_PERICENTER": "162.7792",
    "MEAN_ANOMALY": "197.354",
    "EPHEMERIS_TYPE": "0",
    "ELEMENT_SET_NO": "999",
    "REV_AT_EPOCH": "70960",
    "BSTAR": "0.000070088",
    "MEAN_MOTION_DOT": "0.00000285",
    "MEAN_MOTION_DDOT": "0",
    "FILE": "3991628",
    "TLE_LINE0": "0 CRYOSAT 2",
    "TLE_LINE1": "1 36508U 10013A   23240.89496328  .00000285  00000-0  70088-4 0  9999",
    "TLE_LINE2": "2 36508  92.0244  29.9304 0003678 162.7792 197.3540 14.51910926709609",
    "OBJECT_ID": "2010-013A",
    "OBJECT_NUMBER": "36508",
    "SEMIMAJOR_AXIS": "7097.551",
    "PERIOD": "99.180",
    "APOGEE": "722.027",
    "PERIGEE": "716.806",
    "DECAYED": "0"
  },
  {
    "COMMENT": "GENERATED VIA SPACETRACK.ORG API",
    "ORIGINATOR": "18 SPCS",
    "NORAD_CAT_ID": "36508",
    "OBJECT_NAME": "CRYOSAT 2",
    "OBJECT_TYPE": "PAYLOAD",
    "CLASSIFICATION_TYPE": "U",
    "INTLDES": "10013A",
    "EPOCH": "2023-08-29 17:19:40",
    "EPOCH_MICROSECONDS": "717920",
    "MEAN_MOTION": "14.51911389",
    "ECCENTRICITY": "0.0003788",
    "INCLINATION": "92.0245",
    "RA_OF_ASC_NODE": "30.1303",
    "ARG_OF_PERICENTER": "160.5556",
    "MEAN_ANOMALY": "199.5797",
    "EPHEMERIS_TYPE": "0",
    "ELEMENT_SET_NO": "999",
    "REV_AT_EPOCH": "70976",
    "BSTAR": "0.000067482",
    "MEAN_MOTION_DOT": "0.00000275",
    "MEAN_MOTION_DDOT": "0",
    "FILE": "3992395",
    "TLE_LINE0": "0 CRYOSAT 2",
    "TLE_LINE1": "1 36508U 10013A   23241.72199905  .00000275  00000-0  67482-4 0  9996",
    "TLE_LINE2": "2 36508  92.0245  30.1303 0003788 160.5556 199.5797 14.51911389709768",
    "OBJECT_ID": "2010-013A",
    "OBJECT_NUMBER": "36508",
    "SEMIMAJOR_AXIS": "7097.550",
    "PERIOD": "99.180",
    "APOGEE": "722.103",
    "PERIGEE": "716.726",
    "DECAYED": "0"
  },
  {
    "COMMENT": "GENERATED VIA SPACETRACK.ORG API",
    "ORIGINATOR": "18 SPCS",
    "NORAD_CAT_ID": "36508",
    "OBJECT_NAME": "CRYOSAT 2",
    "OBJECT_TYPE": "PAYLOAD",
    "CLASSIFICATION_TYPE": "U",
    "INTLDES": "10013A",
    "EPOCH": "2023-08-29 20:38:10",
    "EPOCH_MICROSECONDS": "27392",
    "MEAN_MOTION": "14.51911495",
    "ECCENTRICITY": "0.0003808",
    "INCLINATION": "92.0246",
    "RA_OF_ASC_NODE": "30.1636",
    "ARG_OF_PERICENTER": "160.2285",
    "MEAN_ANOMALY": "199.9071",
    "EPHEMERIS_TYPE": "0",
    "ELEMENT_SET_NO": "999",
    "REV_AT_EPOCH": "70974",
    "BSTAR": "0.000067312",
    "MEAN_MOTION_DOT": "0.00000274",
    "MEAN_MOTION_DDOT": "0",
    "FILE": "3992439",
    "TLE_LINE0": "0 CRYOSAT 2",
    "TLE_LINE1": "1 36508U 10013A   23241.85983828  .00000274  00000-0  67312-4 0  9996",
    "TLE_LINE2": "2 36508  92.0246  30.1636 0003808 160.2285 199.9071 14.51911495709742",
    "OBJECT_ID": "2010-013A",
    "OBJECT_NUMBER": "36508",
    "SEMIMAJOR_AXIS": "7097.549",
    "PERIOD": "99.180",
    "APOGEE": "722.117",
    "PERIGEE": "716.711",
    "DECAYED": "0"
  },
  {
    "COMMENT": "GENERATED VIA SPACETRACK.ORG API",
    "ORIGINATOR": "18 SPCS",
    "NORAD_CAT_ID": "36508",
    "OBJECT_NAME": "CRYOSAT 2",
    "OBJECT_TYPE": "PAYLOAD",
    "CLASSIFICATION_TYPE": "U",
    "INTLDES": "10013A",
    "EPOCH": "2023-08-30 19:47:35",
    "EPOCH_MICROSECONDS": "194560",
    "MEAN_MOTION": "14.51912009",
    "ECCENTRICITY": "0.0003941",
    "INCLINATION": "92.0247",
    "RA_OF_ASC_NODE": "30.3968",
    "ARG_OF_PERICENTER": "157.816",
    "MEAN_ANOMALY": "202.3219",
    "EPHEMERIS_TYPE": "0",
    "ELEMENT_SET_NO": "999",
    "REV_AT_EPOCH": "70988",
    "BSTAR": "0.000063021",
    "MEAN_MOTION_DOT": "0.00000257",
    "MEAN_MOTION_DDOT": "0",
    "FILE": "3993321",
    "TLE_LINE0": "0 CRYOSAT 2",
    "TLE_LINE1": "1 36508U 10013A   23242.82471290  .00000257  00000-0  63021-4 0  9993",
    "TLE_LINE2": "2 36508  92.0247  30.3968 0003941 157.8160 202.3219 14.51912009709885",
    "OBJECT_ID": "2010-013A",
    "OBJECT_NUMBER": "36508",
    "SEMIMAJOR_AXIS": "7097.548",
    "PERIOD": "99.180",
    "APOGEE": "722.210",
    "PERIGEE": "716.615",
    "DECAYED": "0"
  },
  {
    "COMMENT": "GENERATED VIA SPACETRACK.ORG API",
    "ORIGINATOR": "18 SPCS",
    "NORAD_CAT_ID": "36508",
    "OBJECT_NAME": "CRYOSAT 2",
    "OBJECT_TYPE": "PAYLOAD",
    "CLASSIFICATION_TYPE": "U",
    "INTLDES": "10013A",
    "EPOCH": "2023-08-31 04:03:48",
    "EPOCH_MICROSECONDS": "465216",
    "MEAN_MOTION": "14.51912159",
    "ECCENTRICITY": "0.0003986",
    "INCLINATION": "92.0248",
    "RA_OF_ASC_NODE": "30.4801",
    "ARG_OF_PERICENTER": "156.9222",
    "MEAN_ANOMALY": "203.2165",
    "EPHEMERIS_TYPE": "0",
    "ELEMENT_SET_NO": "999",
    "REV_AT_EPOCH": "70997",
    "BSTAR": "0.000061207",
    "MEAN_MOTION_DOT": "0.0000025",
    "MEAN_MOTION_DDOT": "0",
    "FILE": "3993568",
    "TLE_LINE0": "0 CRYOSAT 2",
    "TLE_LINE1": "1 36508U 10013A   23243.16931094  .00000250  00000-0  61207-4 0  9991",
    "TLE_LINE2": "2 36508  92.0248  30.4801 0003986 156.9222 203.2165 14.51912159709977",
    "OBJECT_ID": "2010-013A",
    "OBJECT_NUMBER": "36508",
    "SEMIMAJOR_AXIS": "7097.547",
    "PERIOD": "99.180",
    "APOGEE": "722.241",
    "PERIGEE": "716.583",
    "DECAYED": "0"
  },
  {
    "COMMENT": "GENERATED VIA SPACETRACK.ORG API",
    "ORIGINATOR": "18 SPCS",
    "NORAD_CAT_ID": "36508",
    "OBJECT_NAME": "CRYOSAT 2",
    "OBJECT_TYPE": "PAYLOAD",
    "CLASSIFICATION_TYPE": "U",
    "INTLDES": "10013A",
    "EPOCH": "2023-08-31 17:17:45",
    "EPOCH_MICROSECONDS": "685824",
    "MEAN_MOTION": "14.51912461",
    "ECCENTRICITY": "0.0004054",
    "INCLINATION": "92.0249",
    "RA_OF_ASC_NODE": "30.6133",
    "ARG_OF_PERICENTER": "155.56",
    "MEAN_ANOMALY": "204.58",
    "EPHEMERIS_TYPE": "0",
    "ELEMENT_SET_NO": "999",
    "REV_AT_EPOCH": "71001",
    "BSTAR": "0.000060291",
    "MEAN_MOTION_DOT": "0.00000246",
    "MEAN_MOTION_DDOT": "0",
    "FILE": "3994074",
    "TLE_LINE0": "0 CRYOSAT 2",
    "TLE_LINE1": "1 36508U 10013A   23243.72066766  .00000246  00000-0  60291-4 0  9995",
    "TLE_LINE2": "2 36508  92.0249  30.6133 0004054 155.5600 204.5800 14.51912461710013",
    "OBJECT_ID": "2010-013A",
    "OBJECT_NUMBER": "36508",
    "SEMIMAJOR_AXIS": "7097.546",
    "PERIOD": "99.180",
    "APOGEE": "722.288",
    "PERIGEE": "716.534",
    "DECAYED": "0"
  }
]